start=new Date('2023-03-24T00:00:00.000Z').valueOf();
sats=[{"OBJECT_ID":"2020-019BM","FILE":"3868816","APOAPSIS":"547.771","SITE":"AFETR","INCLINATION":"53.0555","MEAN_MOTION_DDOT":"0.0000000000000","RA_OF_ASC_NODE":"342.8030","NORAD_CAT_ID":"45419","LAUNCH_DATE":"2020-03-18","ARG_OF_PERICENTER":"114.0233","ELEMENT_SET_NO":"999","GP_ID":"228736934","PERIAPSIS":"546.654","ECCENTRICITY":"0.00008060","TLE_LINE2":"2 45419  53.0555 342.8030 0000806 114.0233 246.0840 15.06400357166420","OBJECT_TYPE":"PAYLOAD","COUNTRY_CODE":"US","MEAN_ELEMENT_THEORY":"SGP4","MEAN_ANOMALY":"246.0840","REF_FRAME":"TEME","EPOCH":"2023-03-23T22:26:44.236608","CLASSIFICATION_TYPE":"U","MEAN_MOTION":"15.06400357","PERIOD":"95.592","TIME_SYSTEM":"UTC","DECAY_DATE":null,"BSTAR":"0.00278760000000","OBJECT_NAME":"STARLINK-1308","CENTER_NAME":"EARTH","RCS_SIZE":"LARGE","EPHEMERIS_TYPE":"0","MEAN_MOTION_DOT":"0.00041485","TLE_LINE1":"1 45419U 20019BM  23082.93523422  .00041485  00000-0  27876-2 0  9994","SEMIMAJOR_AXIS":"6925.347","REV_AT_EPOCH":"16642"},{"COUNTRY_CODE":"US","MEAN_ELEMENT_THEORY":"SGP4","MEAN_ANOMALY":"262.7504","REF_FRAME":"TEME","EPOCH":"2023-03-23T20:06:03.643488","ECCENTRICITY":"0.00006740","TLE_LINE2":"2 45531  53.0516 283.2446 0000674  97.3562 262.7504 15.06396787161431","OBJECT_TYPE":"PAYLOAD","LAUNCH_DATE":"2020-04-22","ARG_OF_PERICENTER":"97.3562","ELEMENT_SET_NO":"999","GP_ID":"228710374","PERIAPSIS":"546.757","APOAPSIS":"547.690","FILE":"3868524","OBJECT_ID":"2020-025A","SITE":"AFETR","INCLINATION":"53.0516","MEAN_MOTION_DDOT":"0.0000000000000","NORAD_CAT_ID":"45531","RA_OF_ASC_NODE":"283.2446","SEMIMAJOR_AXIS":"6925.358","TLE_LINE1":"1 45531U 20025A   23082.83754217  .00007674  00000-0  53351-3 0  9993","REV_AT_EPOCH":"16143","CENTER_NAME":"EARTH","RCS_SIZE":"LARGE","EPHEMERIS_TYPE":"0","MEAN_MOTION_DOT":"0.00007674","PERIOD":"95.592","TIME_SYSTEM":"UTC","DECAY_DATE":null,"OBJECT_NAME":"STARLINK-1329","BSTAR":"0.00053351000000","CLASSIFICATION_TYPE":"U","MEAN_MOTION":"15.06396787"},{"MEAN_MOTION":"15.06394923","CLASSIFICATION_TYPE":"U","DECAY_DATE":null,"OBJECT_NAME":"STARLINK-1338","BSTAR":"0.00023494000000","PERIOD":"95.592","TIME_SYSTEM":"UTC","RCS_SIZE":"LARGE","EPHEMERIS_TYPE":"0","MEAN_MOTION_DOT":"0.00003219","CENTER_NAME":"EARTH","REV_AT_EPOCH":"16203","SEMIMAJOR_AXIS":"6925.364","TLE_LINE1":"1 45532U 20025B   23082.84859980  .00003219  00000-0  23494-3 0  9994","RA_OF_ASC_NODE":"283.1916","NORAD_CAT_ID":"45532","APOAPSIS":"547.741","FILE":"3868816","OBJECT_ID":"2020-025B","SITE":"AFETR","INCLINATION":"53.0532","MEAN_MOTION_DDOT":"0.0000000000000","ARG_OF_PERICENTER":"114.3680","ELEMENT_SET_NO":"999","GP_ID":"228735695","PERIAPSIS":"546.717","LAUNCH_DATE":"2020-04-22","TLE_LINE2":"2 45532  53.0532 283.1916 0000739 114.3680 245.7386 15.06394923162030","OBJECT_TYPE":"PAYLOAD","ECCENTRICITY":"0.00007390","REF_FRAME":"TEME","EPOCH":"2023-03-23T20:21:59.022720","COUNTRY_CODE":"US","MEAN_ANOMALY":"245.7386","MEAN_ELEMENT_THEORY":"SGP4"},{"COUNTRY_CODE":"US","MEAN_ANOMALY":"285.0337","MEAN_ELEMENT_THEORY":"SGP4","REF_FRAME":"TEME","EPOCH":"2023-03-23T20:37:55.678080","ECCENTRICITY":"0.00009550","TLE_LINE2":"2 45534  53.0530 283.1405 0000955  75.0757 285.0337 15.06412330161441","OBJECT_TYPE":"PAYLOAD","LAUNCH_DATE":"2020-04-22","ARG_OF_PERICENTER":"75.0757","ELEMENT_SET_NO":"999","GP_ID":"228711227","PERIAPSIS":"546.514","APOAPSIS":"547.837","FILE":"3868551","OBJECT_ID":"2020-025D","SITE":"AFETR","INCLINATION":"53.0530","MEAN_MOTION_DDOT":"0.0000000000000","NORAD_CAT_ID":"45534","RA_OF_ASC_NODE":"283.1405","SEMIMAJOR_AXIS":"6925.311","TLE_LINE1":"1 45534U 20025D   23082.85967220  .00015570  00000-0  10615-2 0  9997","REV_AT_EPOCH":"16144","CENTER_NAME":"EARTH","RCS_SIZE":"LARGE","MEAN_MOTION_DOT":"0.00015570","EPHEMERIS_TYPE":"0","PERIOD":"95.591","TIME_SYSTEM":"UTC","DECAY_DATE":null,"BSTAR":"0.00106150000000","OBJECT_NAME":"STARLINK-1341","CLASSIFICATION_TYPE":"U","MEAN_MOTION":"15.06412330"},{"RCS_SIZE":"LARGE","EPHEMERIS_TYPE":"0","MEAN_MOTION_DOT":"0.00026942","CENTER_NAME":"EARTH","REV_AT_EPOCH":"16204","SEMIMAJOR_AXIS":"6925.391","TLE_LINE1":"1 45535U 20025E   23082.87809579  .00026942  00000-0  18214-2 0  9990","MEAN_MOTION":"15.06386202","CLASSIFICATION_TYPE":"U","DECAY_DATE":null,"BSTAR":"0.00182140000000","OBJECT_NAME":"STARLINK-1350","PERIOD":"95.593","TIME_SYSTEM":"UTC","TLE_LINE2":"2 45535  53.0502 283.0623 0001142  65.5501 294.5607 15.06386202162042","OBJECT_TYPE":"PAYLOAD","ECCENTRICITY":"0.00011420","REF_FRAME":"TEME","EPOCH":"2023-03-23T21:04:27.476256","COUNTRY_CODE":"US","MEAN_ANOMALY":"294.5607","MEAN_ELEMENT_THEORY":"SGP4","NORAD_CAT_ID":"45535","RA_OF_ASC_NODE":"283.0623","APOAPSIS":"548.047","FILE":"3868816","OBJECT_ID":"2020-025E","SITE":"AFETR","INCLINATION":"53.0502","MEAN_MOTION_DDOT":"0.0000000000000","ARG_OF_PERICENTER":"65.5501","ELEMENT_SET_NO":"999","GP_ID":"228736675","PERIAPSIS":"546.465","LAUNCH_DATE":"2020-04-22"},{"OBJECT_TYPE":"PAYLOAD","TLE_LINE2":"2 45536  53.0516 283.3396 0001339  70.6068 289.5065 15.06395659161442","ECCENTRICITY":"0.00013390","EPOCH":"2023-03-23T19:34:13.481184","REF_FRAME":"TEME","COUNTRY_CODE":"US","MEAN_ANOMALY":"289.5065","MEAN_ELEMENT_THEORY":"SGP4","RA_OF_ASC_NODE":"283.3396","NORAD_CAT_ID":"45536","SITE":"AFETR","OBJECT_ID":"2020-025F","FILE":"3868525","APOAPSIS":"548.154","MEAN_MOTION_DDOT":"0.0000000000000","INCLINATION":"53.0516","ELEMENT_SET_NO":"999","ARG_OF_PERICENTER":"70.6068","PERIAPSIS":"546.300","GP_ID":"228710379","LAUNCH_DATE":"2020-04-22","RCS_SIZE":"LARGE","MEAN_MOTION_DOT":"0.00023240","EPHEMERIS_TYPE":"0","CENTER_NAME":"EARTH","REV_AT_EPOCH":"16144","SEMIMAJOR_AXIS":"6925.362","TLE_LINE1":"1 45536U 20025F   23082.81543381  .00023240  00000-0  15741-2 0  9991","MEAN_MOTION":"15.06395659","CLASSIFICATION_TYPE":"U","BSTAR":"0.00157410000000","OBJECT_NAME":"STARLINK-1352","DECAY_DATE":null,"PERIOD":"95.592","TIME_SYSTEM":"UTC"},{"REV_AT_EPOCH":"16144","TLE_LINE1":"1 45538U 20025H   23082.84123074  .00005789  00000-0  40721-3 0  9994","SEMIMAJOR_AXIS":"6925.358","EPHEMERIS_TYPE":"0","MEAN_MOTION_DOT":"0.00005789","RCS_SIZE":"LARGE","CENTER_NAME":"EARTH","OBJECT_NAME":"STARLINK-1362","BSTAR":"0.00040721000000","DECAY_DATE":null,"TIME_SYSTEM":"UTC","PERIOD":"95.592","MEAN_MOTION":"15.06397032","CLASSIFICATION_TYPE":"U","EPOCH":"2023-03-23T20:11:22.335936","REF_FRAME":"TEME","MEAN_ELEMENT_THEORY":"SGP4","MEAN_ANOMALY":"292.5129","COUNTRY_CODE":"US","OBJECT_TYPE":"PAYLOAD","TLE_LINE2":"2 45538  53.0526 283.2241 0001352  67.6004 292.5129 15.06397032161446","ECCENTRICITY":"0.00013520","PERIAPSIS":"546.286","GP_ID":"228711147","ELEMENT_SET_NO":"999","ARG_OF_PERICENTER":"67.6004","LAUNCH_DATE":"2020-04-22","RA_OF_ASC_NODE":"283.2241","NORAD_CAT_ID":"45538","MEAN_MOTION_DDOT":"0.0000000000000","INCLINATION":"53.0526","SITE":"AFETR","FILE":"3868547","OBJECT_ID":"2020-025H","APOAPSIS":"548.159"},{"LAUNCH_DATE":"2020-04-22","ARG_OF_PERICENTER":"57.1178","ELEMENT_SET_NO":"999","GP_ID":"228710399","PERIAPSIS":"546.567","APOAPSIS":"547.877","FILE":"3868531","OBJECT_ID":"2020-025K","SITE":"AFETR","INCLINATION":"53.0511","MEAN_MOTION_DDOT":"0.0000000000000","NORAD_CAT_ID":"45540","RA_OF_ASC_NODE":"283.3269","COUNTRY_CODE":"US","MEAN_ANOMALY":"302.9902","MEAN_ELEMENT_THEORY":"SGP4","REF_FRAME":"TEME","EPOCH":"2023-03-23T19:39:32.148576","ECCENTRICITY":"0.00009460","TLE_LINE2":"2 45540  53.0511 283.3269 0000946  57.1178 302.9902 15.06397180161447","OBJECT_TYPE":"PAYLOAD","PERIOD":"95.592","TIME_SYSTEM":"UTC","DECAY_DATE":null,"OBJECT_NAME":"STARLINK-1368","BSTAR":"0.00081809000000","CLASSIFICATION_TYPE":"U","MEAN_MOTION":"15.06397180","TLE_LINE1":"1 45540U 20025K   23082.81912209  .00011924  00000-0  81809-3 0  9990","SEMIMAJOR_AXIS":"6925.357","REV_AT_EPOCH":"16144","CENTER_NAME":"EARTH","RCS_SIZE":"LARGE","EPHEMERIS_TYPE":"0","MEAN_MOTION_DOT":"0.00011924"},{"LAUNCH_DATE":"2020-04-22","GP_ID":"228710410","PERIAPSIS":"546.342","ARG_OF_PERICENTER":"102.8630","ELEMENT_SET_NO":"999","INCLINATION":"53.0509","MEAN_MOTION_DDOT":"0.0000000000000","APOAPSIS":"548.013","FILE":"3868532","OBJECT_ID":"2020-025L","SITE":"AFETR","NORAD_CAT_ID":"45541","RA_OF_ASC_NODE":"283.3103","MEAN_ANOMALY":"257.2494","MEAN_ELEMENT_THEORY":"SGP4","COUNTRY_CODE":"US","REF_FRAME":"TEME","EPOCH":"2023-03-23T19:44:50.028000","ECCENTRICITY":"0.00012070","TLE_LINE2":"2 45541  53.0509 283.3103 0001207 102.8630 257.2494 15.06411751161443","OBJECT_TYPE":"PAYLOAD","TIME_SYSTEM":"UTC","PERIOD":"95.591","DECAY_DATE":null,"BSTAR":"0.00107620000000","OBJECT_NAME":"STARLINK-1369","CLASSIFICATION_TYPE":"U","MEAN_MOTION":"15.06411751","TLE_LINE1":"1 45541U 20025L   23082.82280125  .00015790  00000-0  10762-2 0  9991","SEMIMAJOR_AXIS":"6925.313","REV_AT_EPOCH":"16144","CENTER_NAME":"EARTH","EPHEMERIS_TYPE":"0","MEAN_MOTION_DOT":"0.00015790","RCS_SIZE":"LARGE"},{"CLASSIFICATION_TYPE":"U","MEAN_MOTION":"15.06403101","PERIOD":"95.592","TIME_SYSTEM":"UTC","DECAY_DATE":null,"BSTAR":"0.00054660000000","OBJECT_NAME":"STARLINK-1371","CENTER_NAME":"EARTH","RCS_SIZE":"LARGE","EPHEMERIS_TYPE":"0","MEAN_MOTION_DOT":"0.00007870","SEMIMAJOR_AXIS":"6925.339","TLE_LINE1":"1 45542U 20025M   23082.85598663  .00007870  00000-0  54660-3 0  9990","REV_AT_EPOCH":"16203","OBJECT_ID":"2020-025M","FILE":"3868816","APOAPSIS":"547.774","SITE":"AFETR","INCLINATION":"53.0519","MEAN_MOTION_DDOT":"0.0000000000000","NORAD_CAT_ID":"45542","RA_OF_ASC_NODE":"283.1624","LAUNCH_DATE":"2020-04-22","ARG_OF_PERICENTER":"106.3372","ELEMENT_SET_NO":"999","GP_ID":"228735447","PERIAPSIS":"546.634","ECCENTRICITY":"0.00008230","TLE_LINE2":"2 45542  53.0519 283.1624 0000823 106.3372 253.7708 15.06403101162031","OBJECT_TYPE":"PAYLOAD","COUNTRY_CODE":"US","MEAN_ANOMALY":"253.7708","MEAN_ELEMENT_THEORY":"SGP4","REF_FRAME":"TEME","EPOCH":"2023-03-23T20:32:37.244832"}];
